{
    "links": {
        "self": "http://www.neowsapp.com/rest/v1/neo/3837978?api_key=iIulBulltgU6a56xZRHN4H3l9WmuAYTsLGpBGhQ2"
    },
    "id": "3837978",
    "neo_reference_id": "3837978",
    "name": "(2019 BT1)",
    "designation": "2019 BT1",
    "nasa_jpl_url": "http://ssd.jpl.nasa.gov/sbdb.cgi?sstr=3837978",
    "absolute_magnitude_h": 25.3,
    "estimated_diameter": {
        "kilometers": {
            "estimated_diameter_min": 0.0231502122,
            "estimated_diameter_max": 0.0517654482
        },
        "meters": {
            "estimated_diameter_min": 23.150212221,
            "estimated_diameter_max": 51.7654482198
        },
        "miles": {
            "estimated_diameter_min": 0.0143848705,
            "estimated_diameter_max": 0.0321655483
        },
        "feet": {
            "estimated_diameter_min": 75.9521422633,
            "estimated_diameter_max": 169.8341531374
        }
    },
    "is_potentially_hazardous_asteroid": false,
    "close_approach_data": [
        {
            "close_approach_date": "2016-09-28",
            "close_approach_date_full": "2016-Sep-28 15:47",
            "epoch_date_close_approach": 1475077620000,
            "relative_velocity": {
                "kilometers_per_second": "10.640401465",
                "kilometers_per_hour": "38305.4452740518",
                "miles_per_hour": "23801.5140370907"
            },
            "miss_distance": {
                "astronomical": "0.0313653207",
                "lunar": "12.2011097523",
                "kilometers": "4692185.168586909",
                "miles": "2915588.6661169842"
            },
            "orbiting_body": "Mars"
        },
        {
            "close_approach_date": "2019-01-16",
            "close_approach_date_full": "2019-Jan-16 04:28",
            "epoch_date_close_approach": 1547612880000,
            "relative_velocity": {
                "kilometers_per_second": "11.1596706673",
                "kilometers_per_hour": "40174.8144022048",
                "miles_per_hour": "24963.0673156366"
            },
            "miss_distance": {
                "astronomical": "0.0298982608",
                "lunar": "11.6304234512",
                "kilometers": "4472716.132384496",
                "miles": "2779216.9306622048"
            },
            "orbiting_body": "Earth"
        },
        {
            "close_approach_date": "2176-02-13",
            "close_approach_date_full": "2176-Feb-13 21:09",
            "epoch_date_close_approach": 6504527340000,
            "relative_velocity": {
                "kilometers_per_second": "23.5937225085",
                "kilometers_per_hour": "84937.40103055",
                "miles_per_hour": "52776.7978792326"
            },
            "miss_distance": {
                "astronomical": "0.4513026763",
                "lunar": "175.5567410807",
                "kilometers": "67513919.099779481",
                "miles": "41951204.0254235978"
            },
            "orbiting_body": "Earth"
        }
    ],
    "orbital_data": {
        "orbit_id": "2",
        "orbit_determination_date": "2019-01-28 07:45:45",
        "first_observation_date": "2019-01-24",
        "last_observation_date": "2019-01-28",
        "data_arc_in_days": 4,
        "observations_used": 24,
        "orbit_uncertainty": "8",
        "minimum_orbit_intersection": ".00574688",
        "jupiter_tisserand_invariant": "4.354",
        "epoch_osculation": "2458508.5",
        "eccentricity": ".4361547364919841",
        "semi_major_axis": "1.539429010394896",
        "inclination": "6.010763865989336",
        "ascending_node_longitude": "109.2385624660435",
        "orbital_period": "697.6505270781136",
        "perihelion_distance": ".8679997560179945",
        "perihelion_argument": "311.2656629855807",
        "aphelion_distance": "2.210858264771798",
        "perihelion_time": "2458459.689699074424",
        "mean_anomaly": "25.18697779359653",
        "mean_motion": ".5160176707781545",
        "equinox": "J2000",
        "orbit_class": {
            "orbit_class_type": "APO",
            "orbit_class_description": "Near-Earth asteroid orbits which cross the Earth’s orbit similar to that of 1862 Apollo",
            "orbit_class_range": "a (semi-major axis) > 1.0 AU; q (perihelion) < 1.017 AU"
        }
    },
    "is_sentry_object": false
}